{
"type": "FeatureCollection",
"name": "08_digital_desert_communities",
"crs": { "type": "name", "properties": { "name": "urn:ogc:def:crs:OGC:1.3:CRS84" } },
"features": [
{ "type": "Feature", "properties": { "map_id": "ip_01", "ip_name": "Phnnong", "num_family": 116.0, "village": "Pu Trom", "commune": "Romonea", "district": "Sen Monorom", "province": "Mondulkiri", "land_size": 1005.0, "titled_par": "53", "residentia": "24", "tradi_agri": "29", "swidden_fa": "Not found", "burial _fo": "Not found", "forest_lan": "Not found", "date_titli": "Not found", "reference": "Sub_decree_No_128__16.09.2015.pdf", "latest_upd": "15/2/2016", "language": "English", "est_population_community": 533.6, "nearest_tower_km": 6.7769609380785214, "nearest_water_km": 1.5431858803502656, "elevation_m": 759.0, "province_flood_norm": null, "flood_exposure_score": 28.182286059011012, "topographic_susceptibility_score": 0.0, "flood_proxy_score": 19.727600241307709, "flood_data_flag": "proxy_only_no_province_flood", "flood_exposure_flag": "water_proxy_only", "topographic_susceptibility_flag": "elevation_based", "risk_score": 19.727600241307709, "digital_desert_class": "E: Lower Priority (Current Data)", "is_priority_digital_desert": false }, "geometry": { "type": "MultiPoint", "coordinates": [ [ 107.18646291, 12.43574576 ] ] } },
{ "type": "Feature", "properties": { "map_id": "ip_08", "ip_name": "Phnnong", "num_family": 37.0, "village": "Ou Kak", "commune": "Ou Krieng", "district": "Sambour", "province": "Kratie", "land_size": 402.04, "titled_par": "21", "residentia": "5", "tradi_agri": "9", "swidden_fa": "6", "burial _fo": "Not found", "forest_lan": "1", "date_titli": "Not found", "reference": "Sub_decree_No_186__24.12.2015.pdf", "latest_upd": "15/2/2016", "language": "English", "est_population_community": 170.2, "nearest_tower_km": 9.357463206235094, "nearest_water_km": 3.7235982477800831, "elevation_m": 40.0, "province_flood_norm": 0.18094108906279055, "flood_exposure_score": 35.902788117718018, "topographic_susceptibility_score": 100.0, "flood_proxy_score": 55.131951682402615, "flood_data_flag": "blended_with_province_flood", "flood_exposure_flag": "province_flood_and_water_proxy", "topographic_susceptibility_flag": "elevation_based", "risk_score": 55.131951682402615, "digital_desert_class": "B: High Risk + Better Connectivity", "is_priority_digital_desert": false }, "geometry": { "type": "MultiPoint", "coordinates": [ [ 106.09831306, 13.06998806 ] ] } },
{ "type": "Feature", "properties": { "map_id": "ip_02", "ip_name": "Phnnong", "num_family": 27.0, "village": "Ou Chrar", "commune": "Srae Preah", "district": "Keo Seima", "province": "Mondulkiri", "land_size": 293.51, "titled_par": "24", "residentia": "10", "tradi_agri": "14", "swidden_fa": "Not found", "burial _fo": "Not found", "forest_lan": "Not found", "date_titli": "Not found", "reference": "Sub_decree_No_62__13.02.2013.pdf", "latest_upd": "15/2/2016", "language": "English", "est_population_community": 124.2, "nearest_tower_km": 44.052412038631708, "nearest_water_km": 4.2240355424524312, "elevation_m": 121.0, "province_flood_norm": null, "flood_exposure_score": 22.101874442427398, "topographic_susceptibility_score": 88.734353268428379, "flood_proxy_score": 42.091618090227691, "flood_data_flag": "proxy_only_no_province_flood", "flood_exposure_flag": "water_proxy_only", "topographic_susceptibility_flag": "elevation_based", "risk_score": 42.091618090227691, "digital_desert_class": "D: Low Risk + Low Connectivity", "is_priority_digital_desert": true }, "geometry": { "type": "MultiPoint", "coordinates": [ [ 106.84452418, 12.24050477 ] ] } },
{ "type": "Feature", "properties": { "map_id": "ip_03", "ip_name": "Phnnong", "num_family": 45.0, "village": "Hkati", "commune": "Srae Preah", "district": "Keo Seima", "province": "Mondulkiri", "land_size": 417.8, "titled_par": "18", "residentia": "8", "tradi_agri": "10", "swidden_fa": "Not found", "burial _fo": "Not found", "forest_lan": "Not found", "date_titli": "07/03/2013", "reference": "Hkati_land_title__07.03.2013.pdf;Sub_decree_No_62__13.02.2013.pdf", "latest_upd": "15/2/2016", "language": "English", "est_population_community": 206.99999999999997, "nearest_tower_km": 45.302037813192584, "nearest_water_km": 1.1467891022075551, "elevation_m": 132.0, "province_flood_norm": null, "flood_exposure_score": 29.08135011645065, "topographic_susceptibility_score": 87.204450625869256, "flood_proxy_score": 46.518280269276232, "flood_data_flag": "proxy_only_no_province_flood", "flood_exposure_flag": "water_proxy_only", "topographic_susceptibility_flag": "elevation_based", "risk_score": 46.518280269276232, "digital_desert_class": "A: High Risk + Low Connectivity", "is_priority_digital_desert": true }, "geometry": { "type": "MultiPoint", "coordinates": [ [ 106.85091051, 12.28387534 ] ] } },
{ "type": "Feature", "properties": { "map_id": "ip_04", "ip_name": "Phnnong", "num_family": 31.0, "village": "Srae Lvi", "commune": "Srae Khtum", "district": "Keo Seima", "province": "Mondulkiri", "land_size": 358.51, "titled_par": "Not found", "residentia": "Not found", "tradi_agri": "Not found", "swidden_fa": "Not found", "burial _fo": "Not found", "forest_lan": "Not found", "date_titli": "Not found", "reference": "Sub_decree_No_239__16.05.2013.pdf", "latest_upd": "15/2/2016", "language": "English", "est_population_community": 142.6, "nearest_tower_km": 38.741949147640504, "nearest_water_km": 2.5387633860173784, "elevation_m": 123.0, "province_flood_norm": null, "flood_exposure_score": 25.924225446271976, "topographic_susceptibility_score": 88.456189151599446, "flood_proxy_score": 44.683814557870214, "flood_data_flag": "proxy_only_no_province_flood", "flood_exposure_flag": "water_proxy_only", "topographic_susceptibility_flag": "elevation_based", "risk_score": 44.683814557870214, "digital_desert_class": "D: Low Risk + Low Connectivity", "is_priority_digital_desert": true }, "geometry": { "type": "MultiPoint", "coordinates": [ [ 106.87380782, 12.18104853 ] ] } },
{ "type": "Feature", "properties": { "map_id": "ip_05", "ip_name": "Phnnong", "num_family": 93.0, "village": "Srae Khtum", "commune": "Srae Khtum", "district": "Keo Seima", "province": "Mondulkiri", "land_size": 512.42, "titled_par": "Not found", "residentia": "Not found", "tradi_agri": "Not found", "swidden_fa": "Not found", "burial _fo": "Not found", "forest_lan": "Not found", "date_titli": "Not found", "reference": "Sub_decree_No_250__18.05.2013.pdf", "latest_upd": "15/2/2016", "language": "English", "est_population_community": 427.8, "nearest_tower_km": 36.512070182529051, "nearest_water_km": 5.0380344499764567, "elevation_m": 128.0, "province_flood_norm": null, "flood_exposure_score": 20.255650656303416, "topographic_susceptibility_score": 87.760778859527122, "flood_proxy_score": 40.507189117270528, "flood_data_flag": "proxy_only_no_province_flood", "flood_exposure_flag": "water_proxy_only", "topographic_susceptibility_flag": "elevation_based", "risk_score": 40.507189117270528, "digital_desert_class": "E: Lower Priority (Current Data)", "is_priority_digital_desert": false }, "geometry": { "type": "MultiPoint", "coordinates": [ [ 106.79231121, 12.11389546 ] ] } },
{ "type": "Feature", "properties": { "map_id": "ip_06", "ip_name": "Phnnong", "num_family": 80.0, "village": "Ou Rona", "commune": "Srae Khtum", "district": "Keo Seima", "province": "Mondulkiri", "land_size": 406.88, "titled_par": "Not found", "residentia": "Not found", "tradi_agri": "Not found", "swidden_fa": "Not found", "burial _fo": "Not found", "forest_lan": "Not found", "date_titli": "Not found", "reference": "Sub_decree_No_247__18.05.2013.pdf", "latest_upd": "15/2/2016", "language": "English", "est_population_community": 368.0, "nearest_tower_km": 31.336591774733705, "nearest_water_km": 5.6515544834528768, "elevation_m": 130.0, "province_flood_norm": null, "flood_exposure_score": 18.864131246881712, "topographic_susceptibility_score": 87.482614742698189, "flood_proxy_score": 39.449676295626652, "flood_data_flag": "proxy_only_no_province_flood", "flood_exposure_flag": "water_proxy_only", "topographic_susceptibility_flag": "elevation_based", "risk_score": 39.449676295626652, "digital_desert_class": "E: Lower Priority (Current Data)", "is_priority_digital_desert": false }, "geometry": { "type": "MultiPoint", "coordinates": [ [ 106.88367388, 12.11288346 ] ] } },
{ "type": "Feature", "properties": { "map_id": "ip_21", "ip_name": "Prov", "num_family": null, "village": "Not found", "commune": "Lbang 1; Lbang 2", "district": "Lumphat; Kachannh; Ban Lung", "province": "Ratanakiri", "land_size": 588.4815, "titled_par": "Not found", "residentia": "Not found", "tradi_agri": "Not found", "swidden_fa": "Not found", "burial _fo": "Not found", "forest_lan": "Not found", "date_titli": "Not found", "reference": "Sub_decree_No_86__27.06.2019.pdf", "latest_upd": "27/6/2019", "language": "English", "est_population_community": null, "nearest_tower_km": 7.5703900773043751, "nearest_water_km": 1.3987248505749992, "elevation_m": 248.0, "province_flood_norm": null, "flood_exposure_score": 28.509936854207179, "topographic_susceptibility_score": 71.070931849791378, "flood_proxy_score": 41.278235352882433, "flood_data_flag": "proxy_only_no_province_flood", "flood_exposure_flag": "water_proxy_only", "topographic_susceptibility_flag": "elevation_based", "risk_score": 41.278235352882433, "digital_desert_class": "E: Lower Priority (Current Data)", "is_priority_digital_desert": false }, "geometry": { "type": "MultiPoint", "coordinates": [ [ 106.9810311, 13.66074402 ] ] } },
{ "type": "Feature", "properties": { "map_id": "ip_10", "ip_name": "Tumpoun", "num_family": null, "village": "La En Kraen", "commune": "Ou Chum", "district": "Ou Chum", "province": "Ratanakiri", "land_size": 920.0, "titled_par": "Not found", "residentia": "Not found", "tradi_agri": "Not found", "swidden_fa": "Not found", "burial _fo": "Not found", "forest_lan": "Not found", "date_titli": "Not found", "reference": "Remark_by_HE_Im_Chhun_Lim__19.06.2007.pdf;Lesson_Learnt_of_CLT_for_IC_in_La_in_village__15.03.2007.pdf;3_IC_to_receive_CLTs_.pdf", "latest_upd": "15/2/2016", "language": "English", "est_population_community": null, "nearest_tower_km": 9.0663734461893224, "nearest_water_km": 3.0335538632210515, "elevation_m": 369.0, "province_flood_norm": null, "flood_exposure_score": 24.801995502573806, "topographic_susceptibility_score": 54.242002781641176, "flood_proxy_score": 33.633997686294016, "flood_data_flag": "proxy_only_no_province_flood", "flood_exposure_flag": "water_proxy_only", "topographic_susceptibility_flag": "elevation_based", "risk_score": 33.633997686294016, "digital_desert_class": "E: Lower Priority (Current Data)", "is_priority_digital_desert": false }, "geometry": { "type": "MultiPoint", "coordinates": [ [ 107.02958521, 13.78170374 ] ] } },
{ "type": "Feature", "properties": { "map_id": "ip_11", "ip_name": "Phnnong", "num_family": null, "village": "Andong Kraloeng", "commune": "Sen Monorom", "district": "Ou Raing", "province": "Mondulkiri", "land_size": 1425.0, "titled_par": "Not found", "residentia": "Not found", "tradi_agri": "Not found", "swidden_fa": "Not found", "burial _fo": "Not found", "forest_lan": "Not found", "date_titli": "01/01/2012", "reference": "Remark_by_HE_Im_Chhun_Lim__19.06.2007.pdf;Lesson_Learnt_of_CLT_for_IC_in_La_in_village__15.03.2007.pdf;3_IC_to_receive_CLTs_.pdf", "latest_upd": "15/2/2016", "language": "English", "est_population_community": null, "nearest_tower_km": 7.0469442653111569, "nearest_water_km": 6.0634441010288125, "elevation_m": 693.0, "province_flood_norm": null, "flood_exposure_score": 17.929928016143641, "topographic_susceptibility_score": 9.1794158553546552, "flood_proxy_score": 15.304774367906946, "flood_data_flag": "proxy_only_no_province_flood", "flood_exposure_flag": "water_proxy_only", "topographic_susceptibility_flag": "elevation_based", "risk_score": 15.304774367906946, "digital_desert_class": "E: Lower Priority (Current Data)", "is_priority_digital_desert": false }, "geometry": { "type": "MultiPoint", "coordinates": [ [ 107.23067447, 12.38094734 ] ] } },
{ "type": "Feature", "properties": { "map_id": "ip_07", "ip_name": "Phnnong", "num_family": 132.0, "village": "Pon Chea", "commune": "Ou Krieng", "district": "Sambour", "province": "Kratie", "land_size": 597.31, "titled_par": "35", "residentia": "14", "tradi_agri": "14", "swidden_fa": "6", "burial _fo": "1", "forest_lan": "Not found", "date_titli": "Not found", "reference": "Sub_Decree_No_185__24.12.2015.pdf", "latest_upd": "15/2/2016", "language": "English", "est_population_community": 607.2, "nearest_tower_km": 11.101335064175165, "nearest_water_km": 6.8315390706606856, "elevation_m": 52.0, "province_flood_norm": 0.18094108906279055, "flood_exposure_score": 28.853694783525125, "topographic_susceptibility_score": 98.331015299026419, "flood_proxy_score": 49.696890938175507, "flood_data_flag": "blended_with_province_flood", "flood_exposure_flag": "province_flood_and_water_proxy", "topographic_susceptibility_flag": "elevation_based", "risk_score": 49.696890938175507, "digital_desert_class": "B: High Risk + Better Connectivity", "is_priority_digital_desert": false }, "geometry": { "type": "MultiPoint", "coordinates": [ [ 106.08462128, 13.01465792 ] ] } },
{ "type": "Feature", "properties": { "map_id": "ip_13", "ip_name": "Kreung", "num_family": 205.0, "village": "Not found", "commune": "Kalai; Ou Chum; Pouy; L'ak", "district": "Ou Chum", "province": "Ratanakiri", "land_size": 1496.3127, "titled_par": "21", "residentia": "2", "tradi_agri": "9", "swidden_fa": "7", "burial _fo": "1", "forest_lan": "2", "date_titli": "Not found", "reference": "Sub-decree.No.125__16.06.2016.pdf", "latest_upd": "29/07/2016", "language": "English", "est_population_community": 942.99999999999989, "nearest_tower_km": 17.641485029470147, "nearest_water_km": 3.6650358894183812, "elevation_m": 318.0, "province_flood_norm": null, "flood_exposure_score": 23.369736654928037, "topographic_susceptibility_score": 61.335187760778865, "flood_proxy_score": 34.759371986683284, "flood_data_flag": "proxy_only_no_province_flood", "flood_exposure_flag": "water_proxy_only", "topographic_susceptibility_flag": "elevation_based", "risk_score": 34.759371986683284, "digital_desert_class": "E: Lower Priority (Current Data)", "is_priority_digital_desert": false }, "geometry": { "type": "MultiPoint", "coordinates": [ [ 106.99491947, 13.88468127 ] ] } },
{ "type": "Feature", "properties": { "map_id": "ip_12", "ip_name": "Tumpoun", "num_family": 96.0, "village": "Not found", "commune": "Ou Chum; L'ak", "district": "Ou Chum", "province": "Ratanakiri", "land_size": 605.8134, "titled_par": "16", "residentia": "7", "tradi_agri": "6", "swidden_fa": "1", "burial _fo": "1", "forest_lan": "1", "date_titli": "Not found", "reference": "Sub-decree.No.124__16.06.2016.pdf", "latest_upd": "29/07/2016", "language": "English", "est_population_community": 441.6, "nearest_tower_km": 12.925892397455993, "nearest_water_km": 2.4547233875337766, "elevation_m": 342.0, "province_flood_norm": null, "flood_exposure_score": 26.114835830084644, "topographic_susceptibility_score": 57.997218358831717, "flood_proxy_score": 35.679550588708764, "flood_data_flag": "proxy_only_no_province_flood", "flood_exposure_flag": "water_proxy_only", "topographic_susceptibility_flag": "elevation_based", "risk_score": 35.679550588708764, "digital_desert_class": "E: Lower Priority (Current Data)", "is_priority_digital_desert": false }, "geometry": { "type": "MultiPoint", "coordinates": [ [ 107.02523591, 13.82944865 ] ] } },
{ "type": "Feature", "properties": { "map_id": "ip_14", "ip_name": "Kreung", "num_family": 165.0, "village": "Not found", "commune": "L'ak", "district": "Ou Chum", "province": "Ratanakiri", "land_size": 846.8997, "titled_par": "20", "residentia": "10", "tradi_agri": "10", "swidden_fa": "Not found", "burial _fo": "Not found", "forest_lan": "Not found", "date_titli": "Not found", "reference": "Sub-decree.No.194__20.09.2016.pdf", "latest_upd": "2/12/2016", "language": "English", "est_population_community": 758.99999999999989, "nearest_tower_km": 16.346635863968189, "nearest_water_km": 1.6688153042056642, "elevation_m": 274.0, "province_flood_norm": null, "flood_exposure_score": 27.897347064111877, "topographic_susceptibility_score": 67.454798331015297, "flood_proxy_score": 39.764582444182906, "flood_data_flag": "proxy_only_no_province_flood", "flood_exposure_flag": "water_proxy_only", "topographic_susceptibility_flag": "elevation_based", "risk_score": 39.764582444182906, "digital_desert_class": "E: Lower Priority (Current Data)", "is_priority_digital_desert": false }, "geometry": { "type": "MultiPoint", "coordinates": [ [ 107.0607697, 13.84320158 ] ] } },
{ "type": "Feature", "properties": { "map_id": "ip_15", "ip_name": "Kreung", "num_family": 73.0, "village": "Kreh", "commune": "Pouy", "district": "Ou Chum", "province": "Ratanakiri", "land_size": 744.9148, "titled_par": "12", "residentia": "5", "tradi_agri": "7", "swidden_fa": "Not found", "burial _fo": "Not found", "forest_lan": "Not found", "date_titli": "Not found", "reference": "sub_decree_74__22.05.2017.pdf", "latest_upd": "7/22/2017", "language": "English", "est_population_community": 335.8, "nearest_tower_km": 23.966173270526429, "nearest_water_km": 6.6658725068824305, "elevation_m": 338.0, "province_flood_norm": null, "flood_exposure_score": 16.563565430096958, "topographic_susceptibility_score": 58.553546592489568, "flood_proxy_score": 29.160559778814743, "flood_data_flag": "proxy_only_no_province_flood", "flood_exposure_flag": "water_proxy_only", "topographic_susceptibility_flag": "elevation_based", "risk_score": 29.160559778814743, "digital_desert_class": "E: Lower Priority (Current Data)", "is_priority_digital_desert": false }, "geometry": { "type": "MultiPoint", "coordinates": [ [ 107.04498487, 13.93025133 ] ] } },
{ "type": "Feature", "properties": { "map_id": "ip_16", "ip_name": "Kreung", "num_family": 70.0, "village": "Ta ngach", "commune": "Pouy", "district": "Ou Chum", "province": "Ratanakiri", "land_size": 519.2114, "titled_par": "7", "residentia": "4", "tradi_agri": "3", "swidden_fa": "Not found", "burial _fo": "Not found", "forest_lan": "Not found", "date_titli": "Not found", "reference": "sub_decree_74__22.05.2017.pdf", "latest_upd": "7/22/2017", "language": "English", "est_population_community": 322.0, "nearest_tower_km": 19.534919515488028, "nearest_water_km": 5.0546848873137717, "elevation_m": 351.0, "province_flood_norm": null, "flood_exposure_score": 20.217885945346957, "topographic_susceptibility_score": 56.745479833101534, "flood_proxy_score": 31.176164111673334, "flood_data_flag": "proxy_only_no_province_flood", "flood_exposure_flag": "water_proxy_only", "topographic_susceptibility_flag": "elevation_based", "risk_score": 31.176164111673334, "digital_desert_class": "E: Lower Priority (Current Data)", "is_priority_digital_desert": false }, "geometry": { "type": "MultiPoint", "coordinates": [ [ 107.00601313, 13.8999578 ] ] } },
{ "type": "Feature", "properties": { "map_id": "ip_17", "ip_name": "Kreung", "num_family": 43.0, "village": "Kang Koy", "commune": "Pouy", "district": "Ou Chum", "province": "Ratanakiri", "land_size": 457.1336, "titled_par": "2", "residentia": "1", "tradi_agri": "1", "swidden_fa": "Not found", "burial _fo": "Not found", "forest_lan": "Not found", "date_titli": "Not found", "reference": "sub_decree_74__22.05.2017.pdf", "latest_upd": "7/22/2017", "language": "English", "est_population_community": 197.8, "nearest_tower_km": 25.724302668682213, "nearest_water_km": 9.5262657039147065, "elevation_m": 190.0, "province_flood_norm": null, "flood_exposure_score": 10.075932695930991, "topographic_susceptibility_score": 79.137691237830325, "flood_proxy_score": 30.794460258500788, "flood_data_flag": "proxy_only_no_province_flood", "flood_exposure_flag": "water_proxy_only", "topographic_susceptibility_flag": "elevation_based", "risk_score": 30.794460258500788, "digital_desert_class": "E: Lower Priority (Current Data)", "is_priority_digital_desert": false }, "geometry": { "type": "MultiPoint", "coordinates": [ [ 107.09310758, 13.92452909 ] ] } },
{ "type": "Feature", "properties": { "map_id": "ip_18", "ip_name": "Kreung", "num_family": 106.0, "village": "Khan Cheurng", "commune": "Pouy", "district": "Ou Chum", "province": "Ratanakiri", "land_size": 1410.0943, "titled_par": "5", "residentia": "3", "tradi_agri": "2", "swidden_fa": "Not found", "burial _fo": "Not found", "forest_lan": "Not found", "date_titli": "Not found", "reference": "sub_decree_74__22.05.2017.pdf", "latest_upd": "7/22/2017", "language": "English", "est_population_community": 487.6, "nearest_tower_km": 27.498535141290784, "nearest_water_km": 5.0315827168842411, "elevation_m": 180.0, "province_flood_norm": null, "flood_exposure_score": 20.270283775569879, "topographic_susceptibility_score": 80.528511821974973, "flood_proxy_score": 38.347752189491402, "flood_data_flag": "proxy_only_no_province_flood", "flood_exposure_flag": "water_proxy_only", "topographic_susceptibility_flag": "elevation_based", "risk_score": 38.347752189491402, "digital_desert_class": "E: Lower Priority (Current Data)", "is_priority_digital_desert": false }, "geometry": { "type": "MultiPoint", "coordinates": [ [ 107.05347451, 13.96122132 ] ] } },
{ "type": "Feature", "properties": { "map_id": "ip_20", "ip_name": "Kraol", "num_family": 223.0, "village": "Rovieng", "commune": "Srae Chis", "district": "Sambour", "province": "Kratie", "land_size": 1125.77, "titled_par": "32", "residentia": "15", "tradi_agri": "17", "swidden_fa": "Not found", "burial _fo": "Not found", "forest_lan": "Not found", "date_titli": "Not found", "reference": "Sub_decree_no_09__23.01.2018.pdf", "latest_upd": "6/4/2018", "language": "English", "est_population_community": 1025.8, "nearest_tower_km": 33.931069322313299, "nearest_water_km": 2.121790530454303, "elevation_m": 83.0, "province_flood_norm": 0.18094108906279055, "flood_exposure_score": 39.535834158921126, "topographic_susceptibility_score": 94.019471488178027, "flood_proxy_score": 55.880925357698196, "flood_data_flag": "blended_with_province_flood", "flood_exposure_flag": "province_flood_and_water_proxy", "topographic_susceptibility_flag": "elevation_based", "risk_score": 55.880925357698196, "digital_desert_class": "B: High Risk + Better Connectivity", "is_priority_digital_desert": false }, "geometry": { "type": "MultiPoint", "coordinates": [ [ 106.474371410000018, 12.939668 ] ] } },
{ "type": "Feature", "properties": { "map_id": "ip_19", "ip_name": "Mel", "num_family": 237.0, "village": "Paklae", "commune": "Roluos Mean Chey", "district": "Sambour", "province": "Kratie", "land_size": 895.18, "titled_par": "26", "residentia": "14", "tradi_agri": "12", "swidden_fa": "Not found", "burial _fo": "Not found", "forest_lan": "Not found", "date_titli": "Not found", "reference": "Sub_decree_no_08__23.01.2018.pdf", "latest_upd": "6/4/2018", "language": "English", "est_population_community": 1090.2, "nearest_tower_km": 20.094123500807211, "nearest_water_km": 8.3604556652926689, "elevation_m": 59.0, "province_flood_norm": 0.18094108906279055, "flood_exposure_score": 25.385972458693949, "topographic_susceptibility_score": 97.357440890125162, "flood_proxy_score": 46.977412988123312, "flood_data_flag": "blended_with_province_flood", "flood_exposure_flag": "province_flood_and_water_proxy", "topographic_susceptibility_flag": "elevation_based", "risk_score": 46.977412988123312, "digital_desert_class": "B: High Risk + Better Connectivity", "is_priority_digital_desert": false }, "geometry": { "type": "MultiPoint", "coordinates": [ [ 106.35098778, 12.97404779 ] ] } },
{ "type": "Feature", "properties": { "map_id": "ip_09", "ip_name": "Tumpoun, Kreung", "num_family": 129.0, "village": "Le En", "commune": "Teun", "district": "Koun Mom", "province": "Ratanakiri", "land_size": 1454.0, "titled_par": "Not found", "residentia": "Not found", "tradi_agri": "Not found", "swidden_fa": "Not found", "burial _fo": "Not found", "forest_lan": "Not found", "date_titli": "Not found", "reference": "Remark_by_HE_Im_Chhun_Lim__19.06.2007.pdf;Lesson_Learnt_of_CLT_for_IC_in_La_in_village__15.03.2007.pdf;3_IC_to_receive_CLTs_.pdf", "latest_upd": "15/2/2016", "language": "English", "est_population_community": 593.4, "nearest_tower_km": 13.919990826720765, "nearest_water_km": 7.5746474069658571, "elevation_m": 272.0, "province_flood_norm": null, "flood_exposure_score": 14.502381046115529, "topographic_susceptibility_score": 67.73296244784423, "flood_proxy_score": 30.471555466634136, "flood_data_flag": "proxy_only_no_province_flood", "flood_exposure_flag": "water_proxy_only", "topographic_susceptibility_flag": "elevation_based", "risk_score": 30.471555466634136, "digital_desert_class": "E: Lower Priority (Current Data)", "is_priority_digital_desert": false }, "geometry": { "type": "MultiPoint", "coordinates": [ [ 106.88442672, 13.61607521 ] ] } },
{ "type": "Feature", "properties": { "map_id": "ip_22", "ip_name": "Kreung", "num_family": 67.0, "village": "Not found", "commune": "Ta Lat", "district": "Sesan", "province": "Stung Treng", "land_size": 331.5, "titled_par": "15", "residentia": "5", "tradi_agri": "10", "swidden_fa": "Not found", "burial _fo": "Not found", "forest_lan": "Not found", "date_titli": "Not found", "reference": "Sub_Decree_No_204__09.12.2019.pdf", "latest_upd": "9/4/2020", "language": "English", "est_population_community": 308.2, "nearest_tower_km": 24.021970842091541, "nearest_water_km": 2.593173889922026, "elevation_m": 85.0, "province_flood_norm": 0.082999435930617094, "flood_exposure_score": 31.610777974506064, "topographic_susceptibility_score": 93.741307371349095, "flood_proxy_score": 50.249936793558966, "flood_data_flag": "blended_with_province_flood", "flood_exposure_flag": "province_flood_and_water_proxy", "topographic_susceptibility_flag": "elevation_based", "risk_score": 50.249936793558966, "digital_desert_class": "B: High Risk + Better Connectivity", "is_priority_digital_desert": false }, "geometry": { "type": "MultiPoint", "coordinates": [ [ 106.60903101, 13.73722771 ] ] } },
{ "type": "Feature", "properties": { "map_id": "ip_23", "ip_name": "Prov", "num_family": 57.0, "village": "Not found", "commune": "Ta Veaeng Kraom; Koh Pong", "district": "Ta Veaeng; Vern Sai", "province": "Ratanakiri", "land_size": 281.5882, "titled_par": "14", "residentia": "1", "tradi_agri": "13", "swidden_fa": "Not found", "burial _fo": "Not found", "forest_lan": "Not found", "date_titli": "Not found", "reference": "Sub_Decree_No_205__09.12.2019.pdf", "latest_upd": "9/4/2020", "language": "English", "est_population_community": 262.2, "nearest_tower_km": 39.382988532649712, "nearest_water_km": 2.3079823894966403, "elevation_m": 106.0, "province_flood_norm": null, "flood_exposure_score": 26.447657801307916, "topographic_susceptibility_score": 90.820584144645338, "flood_proxy_score": 45.759535704309137, "flood_data_flag": "proxy_only_no_province_flood", "flood_exposure_flag": "water_proxy_only", "topographic_susceptibility_flag": "elevation_based", "risk_score": 45.759535704309137, "digital_desert_class": "D: Low Risk + Low Connectivity", "is_priority_digital_desert": true }, "geometry": { "type": "MultiPoint", "coordinates": [ [ 107.044431800000012, 14.07535479 ] ] } },
{ "type": "Feature", "properties": { "map_id": "ip_24", "ip_name": "Prov", "num_family": 64.0, "village": "Not found", "commune": "Ta Veaeng Kraom; Koh Pong", "district": "Ta Veaeng; Vern Sai", "province": "Ratanakiri", "land_size": 586.5047, "titled_par": "13", "residentia": "5", "tradi_agri": "8", "swidden_fa": "Not found", "burial _fo": "Not found", "forest_lan": "Not found", "date_titli": "Not found", "reference": "Sub_Decree_No_206__09.12.2019.pdf", "latest_upd": "9/4/2020", "language": "English", "est_population_community": 294.4, "nearest_tower_km": 40.874027996822456, "nearest_water_km": 3.8789121121818533, "elevation_m": 110.0, "province_flood_norm": null, "flood_exposure_score": 22.884645869052971, "topographic_susceptibility_score": 90.264255910987472, "flood_proxy_score": 43.098528881633321, "flood_data_flag": "proxy_only_no_province_flood", "flood_exposure_flag": "water_proxy_only", "topographic_susceptibility_flag": "elevation_based", "risk_score": 43.098528881633321, "digital_desert_class": "D: Low Risk + Low Connectivity", "is_priority_digital_desert": true }, "geometry": { "type": "MultiPoint", "coordinates": [ [ 107.03973433, 14.09007179 ] ] } },
{ "type": "Feature", "properties": { "map_id": "ip_25", "ip_name": "Kavet", "num_family": 106.0, "village": "Lalai", "commune": "Kok Lak", "district": "Vern Sai", "province": "Ratanakiri", "land_size": 1010.6613, "titled_par": "5", "residentia": "4", "tradi_agri": "1", "swidden_fa": "Not found", "burial _fo": "Not found", "forest_lan": "Not found", "date_titli": "Not found", "reference": "Sub_Decree_No_203__08.12.2020.pdf", "latest_upd": "24/2/2021", "language": "English", "est_population_community": 487.6, "nearest_tower_km": 35.530336964012321, "nearest_water_km": 4.1085845353495101, "elevation_m": 97.0, "province_flood_norm": null, "flood_exposure_score": 22.363727859520701, "topographic_susceptibility_score": 92.072322670375513, "flood_proxy_score": 43.276306302777144, "flood_data_flag": "proxy_only_no_province_flood", "flood_exposure_flag": "water_proxy_only", "topographic_susceptibility_flag": "elevation_based", "risk_score": 43.276306302777144, "digital_desert_class": "E: Lower Priority (Current Data)", "is_priority_digital_desert": false }, "geometry": { "type": "MultiPoint", "coordinates": [ [ 106.84958459, 14.02775223 ] ] } },
{ "type": "Feature", "properties": { "map_id": "ip_26", "ip_name": "Kavet", "num_family": 170.0, "village": "Rok", "commune": "Kok Lak", "district": "Vern Sai", "province": "Ratanakiri", "land_size": 1146.0241, "titled_par": "6", "residentia": "4", "tradi_agri": "2", "swidden_fa": "Not found", "burial _fo": "Not found", "forest_lan": "Not found", "date_titli": "Not found", "reference": "Sub_Decree_No_205__20208.12.2020.pdf", "latest_upd": "24/2/2021", "language": "English", "est_population_community": 781.99999999999989, "nearest_tower_km": 34.76904332149936, "nearest_water_km": 3.488779819538161, "elevation_m": 97.0, "province_flood_norm": null, "flood_exposure_score": 23.769501501850744, "topographic_susceptibility_score": 92.072322670375513, "flood_proxy_score": 44.260347852408174, "flood_data_flag": "proxy_only_no_province_flood", "flood_exposure_flag": "water_proxy_only", "topographic_susceptibility_flag": "elevation_based", "risk_score": 44.260347852408174, "digital_desert_class": "E: Lower Priority (Current Data)", "is_priority_digital_desert": false }, "geometry": { "type": "MultiPoint", "coordinates": [ [ 106.84799505, 14.01976661 ] ] } },
{ "type": "Feature", "properties": { "map_id": "ip_27", "ip_name": "Jarai", "num_family": 50.0, "village": "Sala", "commune": "Kak", "district": "Bar Kaev", "province": "Ratanakiri", "land_size": 331.7539, "titled_par": "38", "residentia": "8", "tradi_agri": "30", "swidden_fa": "Not found", "burial _fo": "Not found", "forest_lan": "Not found", "date_titli": "Not found", "reference": "Sub_Decree_No_204__20208.12.2020.pdf", "latest_upd": "24/2/2021", "language": "English", "est_population_community": 229.99999999999997, "nearest_tower_km": 30.890136010076017, "nearest_water_km": 13.96873809995752, "elevation_m": 227.0, "province_flood_norm": null, "flood_exposure_score": 0.0, "topographic_susceptibility_score": 73.991655076495135, "flood_proxy_score": 22.197496522948541, "flood_data_flag": "proxy_only_no_province_flood", "flood_exposure_flag": "water_proxy_only", "topographic_susceptibility_flag": "elevation_based", "risk_score": 22.197496522948541, "digital_desert_class": "E: Lower Priority (Current Data)", "is_priority_digital_desert": false }, "geometry": { "type": "MultiPoint", "coordinates": [ [ 107.25208445, 13.72546846 ] ] } },
{ "type": "Feature", "properties": { "map_id": "ip_28", "ip_name": "Kreung", "num_family": null, "village": "Svay", "commune": "Pouy", "district": "Ou Chum", "province": "Ratanakiri", "land_size": null, "titled_par": "Not found", "residentia": "Not found", "tradi_agri": "Not found", "swidden_fa": "Not found", "burial _fo": "Not found", "forest_lan": "Not found", "date_titli": "Not found", "reference": "Notification_No_82__12.12.2022.pdf", "latest_upd": "3/1/2023", "language": "English", "est_population_community": null, "nearest_tower_km": 18.149050920517521, "nearest_water_km": 5.3552807709432493, "elevation_m": 381.0, "province_flood_norm": null, "flood_exposure_score": 19.536107056901315, "topographic_susceptibility_score": 52.573018080667588, "flood_proxy_score": 29.447180364031194, "flood_data_flag": "proxy_only_no_province_flood", "flood_exposure_flag": "water_proxy_only", "topographic_susceptibility_flag": "elevation_based", "risk_score": 29.447180364031194, "digital_desert_class": "E: Lower Priority (Current Data)", "is_priority_digital_desert": false }, "geometry": { "type": "MultiPoint", "coordinates": [ [ 107.01217911, 13.88552009 ] ] } },
{ "type": "Feature", "properties": { "map_id": "ip_29", "ip_name": "Prov", "num_family": null, "village": "Rieng Vinh", "commune": "Ta Veaeng Leu", "district": "Ta Veaeng", "province": "Ratanakiri", "land_size": 336.2675, "titled_par": "Not found", "residentia": "Not found", "tradi_agri": "Not found", "swidden_fa": "Not found", "burial _fo": "Not found", "forest_lan": "Not found", "date_titli": "Not found", "reference": "Sub_Decree_No_34__25.01.2023.pdf", "latest_upd": "25/8/2023", "language": "English", "est_population_community": null, "nearest_tower_km": 42.457209623326371, "nearest_water_km": 5.7396913630762914, "elevation_m": 107.0, "province_flood_norm": null, "flood_exposure_score": 18.664228762871687, "topographic_susceptibility_score": 90.681502086230878, "flood_proxy_score": 40.269410759879442, "flood_data_flag": "proxy_only_no_province_flood", "flood_exposure_flag": "water_proxy_only", "topographic_susceptibility_flag": "elevation_based", "risk_score": 40.269410759879442, "digital_desert_class": "D: Low Risk + Low Connectivity", "is_priority_digital_desert": true }, "geometry": { "type": "MultiPoint", "coordinates": [ [ 107.12851264, 14.07721604 ] ] } },
{ "type": "Feature", "properties": { "map_id": "ip_30", "ip_name": "Prov", "num_family": null, "village": "Pangkit", "commune": "Ta Veaeng Leu", "district": "Ta Veaeng", "province": "Ratanakiri", "land_size": 829.7898, "titled_par": "Not found", "residentia": "Not found", "tradi_agri": "Not found", "swidden_fa": "Not found", "burial _fo": "Not found", "forest_lan": "Not found", "date_titli": "Not found", "reference": "Sub_Decree_No_33__25.01.2023.pdf", "latest_upd": "25/8/2023", "language": "English", "est_population_community": null, "nearest_tower_km": 42.405390667481058, "nearest_water_km": 5.4626243501083414, "elevation_m": 112.0, "province_flood_norm": null, "flood_exposure_score": 19.292642026038941, "topographic_susceptibility_score": 89.986091794158554, "flood_proxy_score": 40.500676956474827, "flood_data_flag": "proxy_only_no_province_flood", "flood_exposure_flag": "water_proxy_only", "topographic_susceptibility_flag": "elevation_based", "risk_score": 40.500676956474827, "digital_desert_class": "D: Low Risk + Low Connectivity", "is_priority_digital_desert": true }, "geometry": { "type": "MultiPoint", "coordinates": [ [ 107.13153447, 14.07534821 ] ] } },
{ "type": "Feature", "properties": { "map_id": "ip_31", "ip_name": "Phnnong", "num_family": 140.0, "village": "Srae Chhuk", "commune": "Roluos Mean Chey", "district": "Sambour", "province": "Kratie", "land_size": 302.5868, "titled_par": "30", "residentia": "6", "tradi_agri": "24", "swidden_fa": "Not found", "burial _fo": "Not found", "forest_lan": "Not found", "date_titli": "Not found", "reference": "Sub_Decree_No_212__28.07.2023.pdf", "latest_upd": "1/12/2023", "language": "English", "est_population_community": 644.0, "nearest_tower_km": 11.488904196431175, "nearest_water_km": 6.9904681860473383, "elevation_m": 55.0, "province_flood_norm": 0.18094108906279055, "flood_exposure_score": 28.493229050190195, "topographic_susceptibility_score": 97.913769123783041, "flood_proxy_score": 49.319391072268047, "flood_data_flag": "blended_with_province_flood", "flood_exposure_flag": "province_flood_and_water_proxy", "topographic_susceptibility_flag": "elevation_based", "risk_score": 49.319391072268047, "digital_desert_class": "B: High Risk + Better Connectivity", "is_priority_digital_desert": false }, "geometry": { "type": "MultiPoint", "coordinates": [ [ 106.2867183, 13.0357109 ] ] } },
{ "type": "Feature", "properties": { "map_id": "ip_32", "ip_name": "Kraol", "num_family": 126.0, "village": "Tnaot", "commune": "Srae ChisK", "district": "Sambour", "province": "Kratie", "land_size": 467.8292, "titled_par": "33", "residentia": "6", "tradi_agri": "27", "swidden_fa": "Not found", "burial _fo": "Not found", "forest_lan": "Not found", "date_titli": "Not found", "reference": "Sub_Decree_No_211__28.07.2023.pdf", "latest_upd": "1/12/2023", "language": "English", "est_population_community": 579.6, "nearest_tower_km": 30.621128713877312, "nearest_water_km": 1.6048131068144003, "elevation_m": 71.0, "province_flood_norm": 0.18094108906279055, "flood_exposure_score": 40.708386121326434, "topographic_susceptibility_score": 95.688456189151609, "flood_proxy_score": 57.20240714167398, "flood_data_flag": "blended_with_province_flood", "flood_exposure_flag": "province_flood_and_water_proxy", "topographic_susceptibility_flag": "elevation_based", "risk_score": 57.20240714167398, "digital_desert_class": "B: High Risk + Better Connectivity", "is_priority_digital_desert": false }, "geometry": { "type": "MultiPoint", "coordinates": [ [ 106.44791776, 12.95588308 ] ] } },
{ "type": "Feature", "properties": { "map_id": "ip_37", "ip_name": "Kreung", "num_family": 57.0, "village": "Chan", "commune": "Ta Veaeng Leu", "district": "Ta Veaeng", "province": "Ratanakiri", "land_size": 235.8771, "titled_par": "15", "residentia": "2", "tradi_agri": "13", "swidden_fa": "Not found", "burial _fo": "Not found", "forest_lan": "Not found", "date_titli": "Not found", "reference": "Sub_Decree_No_226__01.12.2025.pdf", "latest_upd": "22/01/2026", "language": "English", "est_population_community": 262.2, "nearest_tower_km": 42.090251720369238, "nearest_water_km": 6.8203711797403885, "elevation_m": 115.0, "province_flood_norm": null, "flood_exposure_score": 16.213148344621288, "topographic_susceptibility_score": 89.568845618915162, "flood_proxy_score": 38.219857526909443, "flood_data_flag": "proxy_only_no_province_flood", "flood_exposure_flag": "water_proxy_only", "topographic_susceptibility_flag": "elevation_based", "risk_score": 38.219857526909443, "digital_desert_class": "D: Low Risk + Low Connectivity", "is_priority_digital_desert": true }, "geometry": { "type": "MultiPoint", "coordinates": [ [ 107.20522347, 14.02817751 ] ] } },
{ "type": "Feature", "properties": { "map_id": "ip_38", "ip_name": "Prov", "num_family": 53.0, "village": "Tumpuon Reung Thum", "commune": "Ta Veaeng Leu", "district": "Ta Veaeng", "province": "Ratanakiri", "land_size": 683.6379, "titled_par": "63", "residentia": "29", "tradi_agri": "34", "swidden_fa": "Not found", "burial _fo": "Not found", "forest_lan": "Not found", "date_titli": "Not found", "reference": "Sub_Decree_No_228__01.12.2025.pdf", "latest_upd": "22/01/2026", "language": "English", "est_population_community": 243.8, "nearest_tower_km": 40.362410161112514, "nearest_water_km": 1.9880400916828762, "elevation_m": 108.0, "province_flood_norm": null, "flood_exposure_score": 27.173316122161989, "topographic_susceptibility_score": 90.542420027816405, "flood_proxy_score": 46.184047293858313, "flood_data_flag": "proxy_only_no_province_flood", "flood_exposure_flag": "water_proxy_only", "topographic_susceptibility_flag": "elevation_based", "risk_score": 46.184047293858313, "digital_desert_class": "A: High Risk + Low Connectivity", "is_priority_digital_desert": true }, "geometry": { "type": "MultiPoint", "coordinates": [ [ 107.06680178, 14.07903818 ] ] } },
{ "type": "Feature", "properties": { "map_id": "ip_39", "ip_name": "Tumpoun", "num_family": 159.0, "village": "Sakmotr Leu", "commune": "Seda", "district": "Lumphat", "province": "Ratanakiri", "land_size": 1215.713, "titled_par": "10", "residentia": "3", "tradi_agri": "7", "swidden_fa": "Not found", "burial _fo": "Not found", "forest_lan": "Not found", "date_titli": "Not found", "reference": "Sub_Decree_No_227__01.12.2025.pdf", "latest_upd": "22/01/2026", "language": "English", "est_population_community": 731.4, "nearest_tower_km": 34.005158988127455, "nearest_water_km": 2.0917010361801172, "elevation_m": 129.0, "province_flood_norm": null, "flood_exposure_score": 26.938203642705449, "topographic_susceptibility_score": 87.621696801112662, "flood_proxy_score": 45.143251590227607, "flood_data_flag": "proxy_only_no_province_flood", "flood_exposure_flag": "water_proxy_only", "topographic_susceptibility_flag": "elevation_based", "risk_score": 45.143251590227607, "digital_desert_class": "E: Lower Priority (Current Data)", "is_priority_digital_desert": false }, "geometry": { "type": "MultiPoint", "coordinates": [ [ 107.19391986, 13.5155906 ] ] } },
{ "type": "Feature", "properties": { "map_id": "ip_41", "ip_name": "Kavet", "num_family": 131.0, "village": "Ou Chay", "commune": "Santepheap", "district": "Siem Pang", "province": "Stung Treng", "land_size": 327.1622, "titled_par": "21", "residentia": "13", "tradi_agri": "8", "swidden_fa": "Not found", "burial _fo": "Not found", "forest_lan": "Not found", "date_titli": "Not found", "reference": "Sub_Decree_No_231__01.12.2025.pdf", "latest_upd": "3/2/2026", "language": "English", "est_population_community": 602.6, "nearest_tower_km": 52.268663623955248, "nearest_water_km": 7.7540933297679837, "elevation_m": 79.0, "province_flood_norm": 0.082999435930617094, "flood_exposure_score": 19.905341836888113, "topographic_susceptibility_score": 94.575799721835878, "flood_proxy_score": 42.306479202372437, "flood_data_flag": "blended_with_province_flood", "flood_exposure_flag": "province_flood_and_water_proxy", "topographic_susceptibility_flag": "elevation_based", "risk_score": 42.306479202372437, "digital_desert_class": "D: Low Risk + Low Connectivity", "is_priority_digital_desert": true }, "geometry": { "type": "MultiPoint", "coordinates": [ [ 106.42954481, 14.16860963 ] ] } },
{ "type": "Feature", "properties": { "map_id": "ip_40", "ip_name": "Kavet", "num_family": 78.0, "village": "Tak team", "commune": "Santepheap", "district": "Siem Pang", "province": "Stung Treng", "land_size": 369.8251, "titled_par": "20", "residentia": "8", "tradi_agri": "12", "swidden_fa": "Not found", "burial _fo": "Not found", "forest_lan": "Not found", "date_titli": "Not found", "reference": "Sub_Decree_No_230__01.12.2025.pdf", "latest_upd": "3/2/2026", "language": "English", "est_population_community": 358.8, "nearest_tower_km": 58.510064450159803, "nearest_water_km": 4.6788739154220771, "elevation_m": 85.0, "province_flood_norm": 0.082999435930617094, "flood_exposure_score": 26.880220031240111, "topographic_susceptibility_score": 93.741307371349095, "flood_proxy_score": 46.938546233272803, "flood_data_flag": "blended_with_province_flood", "flood_exposure_flag": "province_flood_and_water_proxy", "topographic_susceptibility_flag": "elevation_based", "risk_score": 46.938546233272803, "digital_desert_class": "A: High Risk + Low Connectivity", "is_priority_digital_desert": true }, "geometry": { "type": "MultiPoint", "coordinates": [ [ 106.50243412, 14.14281241 ] ] } },
{ "type": "Feature", "properties": { "map_id": "ip_80", "ip_name": "Kreung", "num_family": 72.0, "village": "Svay", "commune": "Pouy", "district": "Ou Chum", "province": "Ratanakiri", "land_size": null, "titled_par": "28", "residentia": "6", "tradi_agri": "22", "swidden_fa": "Not found", "burial _fo": "Not found", "forest_lan": "Not found", "date_titli": "18/08/2025", "reference": "Sub_Decree_No_150_18.08.2025.pdf", "latest_upd": "30/03/2026", "language": "English", "est_population_community": 331.2, "nearest_tower_km": 18.400183731889552, "nearest_water_km": 0.74175694563667816, "elevation_m": 195.0, "province_flood_norm": null, "flood_exposure_score": 30.0, "topographic_susceptibility_score": 78.442280945758, "flood_proxy_score": 44.532684283727399, "flood_data_flag": "proxy_only_no_province_flood", "flood_exposure_flag": "water_proxy_only", "topographic_susceptibility_flag": "elevation_based", "risk_score": 44.532684283727399, "digital_desert_class": "E: Lower Priority (Current Data)", "is_priority_digital_desert": false }, "geometry": { "type": "MultiPoint", "coordinates": [ [ 106.96151978, 13.89389213 ] ] } },
{ "type": "Feature", "properties": { "map_id": "ip_81", "ip_name": "Prov", "num_family": 100.0, "village": "Kam Phlenh", "commune": "Lbang 1; Ta Ang", "district": "Lumphat; Koun Mom", "province": "Ratanakiri", "land_size": null, "titled_par": "52", "residentia": "6", "tradi_agri": "46", "swidden_fa": "Not found", "burial _fo": "Not found", "forest_lan": "Not found", "date_titli": "18/08/2025", "reference": "Sub_Decree_No_152_18.08.2025.pdf", "latest_upd": "30/03/2026", "language": "English", "est_population_community": 459.99999999999994, "nearest_tower_km": 16.598295695980777, "nearest_water_km": 2.7917255718845881, "elevation_m": 117.0, "province_flood_norm": null, "flood_exposure_score": 25.350484130133694, "topographic_susceptibility_score": 89.29068150208623, "flood_proxy_score": 44.532543341719453, "flood_data_flag": "proxy_only_no_province_flood", "flood_exposure_flag": "water_proxy_only", "topographic_susceptibility_flag": "elevation_based", "risk_score": 44.532543341719453, "digital_desert_class": "E: Lower Priority (Current Data)", "is_priority_digital_desert": false }, "geometry": { "type": "MultiPoint", "coordinates": [ [ 106.92650971, 13.58288288 ] ] } },
{ "type": "Feature", "properties": { "map_id": "ip_82", "ip_name": "Kreung", "num_family": 197.0, "village": "Khmaeng", "commune": "Pouy; Ka Choun", "district": "Ou Chum; Ka Choun", "province": "Ratanakiri", "land_size": null, "titled_par": "70", "residentia": "18", "tradi_agri": "52", "swidden_fa": "Not found", "burial _fo": "Not found", "forest_lan": "Not found", "date_titli": "18/08/2025", "reference": "Sub_Decree_No_151_18.08.2025.pdf", "latest_upd": "30/03/2026", "language": "English", "est_population_community": 906.2, "nearest_tower_km": 20.143552330810508, "nearest_water_km": 5.8679652727458871, "elevation_m": 337.0, "province_flood_norm": null, "flood_exposure_score": 18.373291832880614, "topographic_susceptibility_score": 58.692628650904034, "flood_proxy_score": 30.46909287828764, "flood_data_flag": "proxy_only_no_province_flood", "flood_exposure_flag": "water_proxy_only", "topographic_susceptibility_flag": "elevation_based", "risk_score": 30.46909287828764, "digital_desert_class": "E: Lower Priority (Current Data)", "is_priority_digital_desert": false }, "geometry": { "type": "MultiPoint", "coordinates": [ [ 107.03025346, 13.89874701 ] ] } },
{ "type": "Feature", "properties": { "map_id": "ip_83", "ip_name": "Kraol", "num_family": 346.0, "village": "Srae Chis", "commune": "Srae Chis", "district": "Ou Krieng Saenchey", "province": "Ratanakiri", "land_size": null, "titled_par": "30", "residentia": "9", "tradi_agri": "21", "swidden_fa": "Not found", "burial _fo": "Not found", "forest_lan": "Not found", "date_titli": "18/08/2025", "reference": "Sub_Decree_No_153_18.08.2025.pdf", "latest_upd": "30/03/2026", "language": "English", "est_population_community": 1591.6, "nearest_tower_km": 32.250002116816233, "nearest_water_km": 1.5180384174081016, "elevation_m": 73.0, "province_flood_norm": null, "flood_exposure_score": 28.239322799251504, "topographic_susceptibility_score": 95.410292072322662, "flood_proxy_score": 48.39061358117285, "flood_data_flag": "proxy_only_no_province_flood", "flood_exposure_flag": "water_proxy_only", "topographic_susceptibility_flag": "elevation_based", "risk_score": 48.39061358117285, "digital_desert_class": "B: High Risk + Better Connectivity", "is_priority_digital_desert": false }, "geometry": { "type": "MultiPoint", "coordinates": [ [ 106.46327497, 12.95440796 ] ] } },
{ "type": "Feature", "properties": { "map_id": "ip_84", "ip_name": "Phnnong ", "num_family": 105.0, "village": "Lam Meh", "commune": "Bu Sra", "district": "Pech Chreada", "province": "Mondulkiri", "land_size": null, "titled_par": "111", "residentia": "26", "tradi_agri": "85", "swidden_fa": "Not found", "burial _fo": "Not found", "forest_lan": "Not found", "date_titli": "18/08/2025", "reference": "Sub_Decree_No_154_18.08.2025.pdf", "latest_upd": "30/03/2026", "language": "English", "est_population_community": 482.99999999999994, "nearest_tower_km": 15.826216998187771, "nearest_water_km": 4.3756802049893686, "elevation_m": 575.0, "province_flood_norm": null, "flood_exposure_score": 21.757930512740767, "topographic_susceptibility_score": 25.591098748261476, "flood_proxy_score": 22.907880983396979, "flood_data_flag": "proxy_only_no_province_flood", "flood_exposure_flag": "water_proxy_only", "topographic_susceptibility_flag": "elevation_based", "risk_score": 22.907880983396979, "digital_desert_class": "E: Lower Priority (Current Data)", "is_priority_digital_desert": false }, "geometry": { "type": "MultiPoint", "coordinates": [ [ 107.392061, 12.465129 ] ] } },
{ "type": "Feature", "properties": { "map_id": "ip_85", "ip_name": "Kreung", "num_family": 92.0, "village": "Thuoy Tum", "commune": "Cha Ung", "district": "Ou Chum", "province": "Ratanakiri", "land_size": null, "titled_par": "57", "residentia": "8", "tradi_agri": "49", "swidden_fa": "Not found", "burial _fo": "Not found", "forest_lan": "Not found", "date_titli": "18/08/2025", "reference": "Sub_Decree_No_155_18.08.2025.pdf", "latest_upd": "30/03/2026", "language": "English", "est_population_community": 423.2, "nearest_tower_km": 2.3067447429305057, "nearest_water_km": 1.6526593198918227, "elevation_m": 280.0, "province_flood_norm": null, "flood_exposure_score": 27.933990310500484, "topographic_susceptibility_score": 66.620305980528499, "flood_proxy_score": 39.539885011508893, "flood_data_flag": "proxy_only_no_province_flood", "flood_exposure_flag": "water_proxy_only", "topographic_susceptibility_flag": "elevation_based", "risk_score": 39.539885011508893, "digital_desert_class": "E: Lower Priority (Current Data)", "is_priority_digital_desert": false }, "geometry": { "type": "MultiPoint", "coordinates": [ [ 106.96883761, 13.74840903 ] ] } },
{ "type": "Feature", "properties": { "map_id": "ip_86", "ip_name": "Tumpoun", "num_family": 156.0, "village": "Pa Ar", "commune": "Lung Khung", "district": "Bar Kaev", "province": "Ratanakiri", "land_size": null, "titled_par": "37", "residentia": "6", "tradi_agri": "31", "swidden_fa": "Not found", "burial _fo": "Not found", "forest_lan": "Not found", "date_titli": "18/08/2025", "reference": "Sub_Decree_No_156_18.08.2025.pdf", "latest_upd": "30/03/2026", "language": "English", "est_population_community": 717.6, "nearest_tower_km": 23.332447855155529, "nearest_water_km": 8.8485294631928948, "elevation_m": 193.0, "province_flood_norm": null, "flood_exposure_score": 11.613100322045927, "topographic_susceptibility_score": 78.720445062586933, "flood_proxy_score": 31.745303744208226, "flood_data_flag": "proxy_only_no_province_flood", "flood_exposure_flag": "water_proxy_only", "topographic_susceptibility_flag": "elevation_based", "risk_score": 31.745303744208226, "digital_desert_class": "E: Lower Priority (Current Data)", "is_priority_digital_desert": false }, "geometry": { "type": "MultiPoint", "coordinates": [ [ 107.13411695, 13.59496979 ] ] } }
]
}
